start=new Date('2022-08-01T00:00:00.000Z').valueOf();
sats=[{"TLE_LINE2":"2 46714  53.0551  33.0152 0001571  78.7295 281.3871 15.06394871 98651","SEMIMAJOR_AXIS":"6925.364","ECCENTRICITY":"0.00015710","CLASSIFICATION_TYPE":"U","GP_ID":"209295225","EPOCH":"2022-07-31T21:04:01.682400","OBJECT_ID":"2020-073AW","ARG_OF_PERICENTER":"78.7295","MEAN_ELEMENT_THEORY":"SGP4","REF_FRAME":"TEME","INCLINATION":"53.0551","CENTER_NAME":"EARTH","DECAY_DATE":null,"OBJECT_TYPE":"PAYLOAD","MEAN_MOTION":"15.06394871","MEAN_MOTION_DDOT":"0.0000000000000","MEAN_MOTION_DOT":"0.00001737","RA_OF_ASC_NODE":"33.0152","EPHEMERIS_TYPE":"0","BSTAR":"0.00013550000000","LAUNCH_DATE":"2020-10-18","OBJECT_NAME":"STARLINK-1816","MEAN_ANOMALY":"281.3871","PERIAPSIS":"546.141","ELEMENT_SET_NO":"999","TLE_LINE1":"1 46714U 20073AW  22212.87779725  .00001737  00000-0  13550-3 0  9990","FILE":"3526413","COUNTRY_CODE":"US","RCS_SIZE":"LARGE","REV_AT_EPOCH":"9865","SITE":"AFETR","APOAPSIS":"548.317","NORAD_CAT_ID":"46714","TIME_SYSTEM":"UTC","PERIOD":"95.592"},{"MEAN_MOTION":"15.06407932","MEAN_MOTION_DDOT":"0.0000000000000","MEAN_MOTION_DOT":"0.00000070","EPHEMERIS_TYPE":"0","RA_OF_ASC_NODE":"33.0485","LAUNCH_DATE":"2020-10-18","BSTAR":"0.00002359100000","OBJECT_NAME":"STARLINK-1817","MEAN_ANOMALY":"280.6243","PERIAPSIS":"546.182","ELEMENT_SET_NO":"999","TLE_LINE1":"1 46715U 20073AX  22212.87410541  .00000070  00000-0  23591-4 0  9995","FILE":"3526413","COUNTRY_CODE":"US","RCS_SIZE":"LARGE","REV_AT_EPOCH":"9865","SITE":"AFETR","APOAPSIS":"548.197","NORAD_CAT_ID":"46715","TIME_SYSTEM":"UTC","PERIOD":"95.592","TLE_LINE2":"2 46715  53.0549  33.0485 0001455  79.4910 280.6243 15.06407932 98659","SEMIMAJOR_AXIS":"6925.324","ECCENTRICITY":"0.00014550","GP_ID":"209295476","EPOCH":"2022-07-31T20:58:42.707424","CLASSIFICATION_TYPE":"U","OBJECT_ID":"2020-073AX","ARG_OF_PERICENTER":"79.4910","MEAN_ELEMENT_THEORY":"SGP4","REF_FRAME":"TEME","INCLINATION":"53.0549","CENTER_NAME":"EARTH","DECAY_DATE":null,"OBJECT_TYPE":"PAYLOAD"},{"RCS_SIZE":"LARGE","COUNTRY_CODE":"US","FILE":"3526413","TLE_LINE1":"1 46716U 20073AY  22212.82296772  .00000535  00000-0  54839-4 0  9994","ELEMENT_SET_NO":"999","PERIAPSIS":"546.266","PERIOD":"95.593","TIME_SYSTEM":"UTC","NORAD_CAT_ID":"46716","APOAPSIS":"548.198","SITE":"AFETR","REV_AT_EPOCH":"9843","MEAN_MOTION_DDOT":"0.0000000000000","MEAN_MOTION":"15.06393880","OBJECT_NAME":"STARLINK-1818","MEAN_ANOMALY":"274.9597","BSTAR":"0.00005483900000","LAUNCH_DATE":"2020-10-18","RA_OF_ASC_NODE":"48.2551","EPHEMERIS_TYPE":"0","MEAN_MOTION_DOT":"0.00000535","DECAY_DATE":null,"CENTER_NAME":"EARTH","INCLINATION":"53.0541","REF_FRAME":"TEME","MEAN_ELEMENT_THEORY":"SGP4","ARG_OF_PERICENTER":"85.1551","OBJECT_TYPE":"PAYLOAD","ECCENTRICITY":"0.00013950","SEMIMAJOR_AXIS":"6925.367","TLE_LINE2":"2 46716  53.0541  48.2551 0001395  85.1551 274.9597 15.06393880 98432","OBJECT_ID":"2020-073AY","GP_ID":"209296222","EPOCH":"2022-07-31T19:45:04.411008","CLASSIFICATION_TYPE":"U"},{"PERIAPSIS":"546.249","ELEMENT_SET_NO":"999","TLE_LINE1":"1 46717U 20073AZ  22212.75984835  .00000204  00000-0  32588-4 0  9991","COUNTRY_CODE":"US","RCS_SIZE":"LARGE","FILE":"3526413","REV_AT_EPOCH":"9863","NORAD_CAT_ID":"46717","SITE":"AFETR","APOAPSIS":"548.202","PERIOD":"95.592","TIME_SYSTEM":"UTC","MEAN_MOTION":"15.06395978","MEAN_MOTION_DDOT":"0.0000000000000","MEAN_MOTION_DOT":"0.00000204","RA_OF_ASC_NODE":"33.5569","EPHEMERIS_TYPE":"0","MEAN_ANOMALY":"273.7304","OBJECT_NAME":"STARLINK-1820","BSTAR":"0.00003258800000","LAUNCH_DATE":"2020-10-18","ARG_OF_PERICENTER":"86.3847","REF_FRAME":"TEME","MEAN_ELEMENT_THEORY":"SGP4","CENTER_NAME":"EARTH","INCLINATION":"53.0569","DECAY_DATE":null,"OBJECT_TYPE":"PAYLOAD","TLE_LINE2":"2 46717  53.0569  33.5569 0001410  86.3847 273.7304 15.06395978 98633","SEMIMAJOR_AXIS":"6925.361","ECCENTRICITY":"0.00014100","EPOCH":"2022-07-31T18:14:10.897440","GP_ID":"209294476","CLASSIFICATION_TYPE":"U","OBJECT_ID":"2020-073AZ"},{"MEAN_MOTION_DDOT":"0.0000000000000","MEAN_MOTION":"15.06443163","MEAN_MOTION_DOT":"-0.00010581","OBJECT_NAME":"STARLINK-1821","MEAN_ANOMALY":"284.6613","LAUNCH_DATE":"2020-10-18","BSTAR":"-0.00069160000000","RA_OF_ASC_NODE":"48.3483","EPHEMERIS_TYPE":"0","ELEMENT_SET_NO":"999","PERIAPSIS":"545.437","COUNTRY_CODE":"US","RCS_SIZE":"LARGE","FILE":"3526413","TLE_LINE1":"1 46718U 20073BA  22212.79989712 -.00010581  00000-0 -69160-3 0  9991","REV_AT_EPOCH":"9843","PERIOD":"95.589","TIME_SYSTEM":"UTC","NORAD_CAT_ID":"46718","APOAPSIS":"548.726","SITE":"AFETR","ECCENTRICITY":"0.00023750","TLE_LINE2":"2 46718  53.0565  48.3483 0002375  75.4639 284.6613 15.06443163 98430","SEMIMAJOR_AXIS":"6925.216","GP_ID":"209294726","CLASSIFICATION_TYPE":"U","EPOCH":"2022-07-31T19:11:51.111168","OBJECT_ID":"2020-073BA","REF_FRAME":"TEME","MEAN_ELEMENT_THEORY":"SGP4","ARG_OF_PERICENTER":"75.4639","DECAY_DATE":null,"CENTER_NAME":"EARTH","INCLINATION":"53.0565","OBJECT_TYPE":"PAYLOAD"},{"OBJECT_TYPE":"PAYLOAD","CENTER_NAME":"EARTH","INCLINATION":"53.0550","DECAY_DATE":null,"ARG_OF_PERICENTER":"80.6398","REF_FRAME":"TEME","MEAN_ELEMENT_THEORY":"SGP4","OBJECT_ID":"2020-073BB","GP_ID":"209295976","EPOCH":"2022-07-31T20:24:13.800672","CLASSIFICATION_TYPE":"U","SEMIMAJOR_AXIS":"6925.346","TLE_LINE2":"2 46719  53.0550  13.1428 0001474  80.6398 279.4758 15.06400967 98935","ECCENTRICITY":"0.00014740","NORAD_CAT_ID":"46719","APOAPSIS":"548.231","SITE":"AFETR","PERIOD":"95.592","TIME_SYSTEM":"UTC","REV_AT_EPOCH":"9893","TLE_LINE1":"1 46719U 20073BB  22212.85015973  .00005913  00000-0  41554-3 0  9996","COUNTRY_CODE":"US","RCS_SIZE":"LARGE","FILE":"3526413","PERIAPSIS":"546.190","ELEMENT_SET_NO":"999","RA_OF_ASC_NODE":"13.1428","EPHEMERIS_TYPE":"0","MEAN_ANOMALY":"279.4758","OBJECT_NAME":"STARLINK-1822","LAUNCH_DATE":"2020-10-18","BSTAR":"0.00041554000000","MEAN_MOTION_DOT":"0.00005913","MEAN_MOTION":"15.06400967","MEAN_MOTION_DDOT":"0.0000000000000"},{"REV_AT_EPOCH":"10055","APOAPSIS":"323.625","SITE":"AFETR","NORAD_CAT_ID":"46720","TIME_SYSTEM":"UTC","PERIOD":"90.917","PERIAPSIS":"315.417","ELEMENT_SET_NO":"999","TLE_LINE1":"1 46720U 20073BC  22212.84215846  .00108619  00000-0  47505-3 0  9997","FILE":"3526413","RCS_SIZE":"LARGE","COUNTRY_CODE":"US","MEAN_MOTION_DOT":"0.00108619","RA_OF_ASC_NODE":"257.6117","EPHEMERIS_TYPE":"0","BSTAR":"0.00047505000000","LAUNCH_DATE":"2020-10-18","OBJECT_NAME":"STARLINK-1823","MEAN_ANOMALY":"347.3576","MEAN_MOTION":"15.83866199","MEAN_MOTION_DDOT":"0.0000000000000","OBJECT_TYPE":"PAYLOAD","ARG_OF_PERICENTER":"12.7600","MEAN_ELEMENT_THEORY":"SGP4","REF_FRAME":"TEME","INCLINATION":"53.0432","CENTER_NAME":"EARTH","DECAY_DATE":null,"GP_ID":"209295723","EPOCH":"2022-07-31T20:12:42.490944","CLASSIFICATION_TYPE":"U","OBJECT_ID":"2020-073BC","TLE_LINE2":"2 46720  53.0432 257.6117 0006127  12.7600 347.3576 15.83866199100551","SEMIMAJOR_AXIS":"6697.656","ECCENTRICITY":"0.00061270"},{"TLE_LINE2":"2 46722  53.0553  48.2590 0001736  76.9504 283.1679 15.06398352 98432","SEMIMAJOR_AXIS":"6925.354","ECCENTRICITY":"0.00017360","OBJECT_ID":"2020-073BE","GP_ID":"209294976","CLASSIFICATION_TYPE":"U","EPOCH":"2022-07-31T19:50:22.572096","INCLINATION":"53.0553","CENTER_NAME":"EARTH","DECAY_DATE":null,"ARG_OF_PERICENTER":"76.9504","MEAN_ELEMENT_THEORY":"SGP4","REF_FRAME":"TEME","OBJECT_TYPE":"PAYLOAD","MEAN_MOTION":"15.06398352","MEAN_MOTION_DDOT":"0.0000000000000","RA_OF_ASC_NODE":"48.2590","EPHEMERIS_TYPE":"0","LAUNCH_DATE":"2020-10-18","BSTAR":"0.00007159700000","MEAN_ANOMALY":"283.1679","OBJECT_NAME":"STARLINK-1825","MEAN_MOTION_DOT":"0.00000785","TLE_LINE1":"1 46722U 20073BE  22212.82665014  .00000785  00000-0  71597-4 0  9997","FILE":"3526413","RCS_SIZE":"LARGE","COUNTRY_CODE":"US","PERIAPSIS":"546.016","ELEMENT_SET_NO":"999","APOAPSIS":"548.421","SITE":"AFETR","NORAD_CAT_ID":"46722","TIME_SYSTEM":"UTC","PERIOD":"95.592","REV_AT_EPOCH":"9843"},{"REV_AT_EPOCH":"9900","TIME_SYSTEM":"UTC","PERIOD":"95.592","APOAPSIS":"548.138","SITE":"AFETR","NORAD_CAT_ID":"46723","ELEMENT_SET_NO":"999","PERIAPSIS":"546.274","FILE":"3526413","COUNTRY_CODE":"US","RCS_SIZE":"LARGE","TLE_LINE1":"1 46723U 20073BF  22212.85244972  .00000261  00000-0  36436-4 0  9999","MEAN_MOTION_DOT":"0.00000261","LAUNCH_DATE":"2020-10-18","BSTAR":"0.00003643600000","OBJECT_NAME":"STARLINK-1826","MEAN_ANOMALY":"276.1846","EPHEMERIS_TYPE":"0","RA_OF_ASC_NODE":"8.1395","MEAN_MOTION_DDOT":"0.0000000000000","MEAN_MOTION":"15.06402574","OBJECT_TYPE":"PAYLOAD","MEAN_ELEMENT_THEORY":"SGP4","REF_FRAME":"TEME","ARG_OF_PERICENTER":"83.9297","DECAY_DATE":null,"INCLINATION":"53.0559","CENTER_NAME":"EARTH","GP_ID":"209295226","CLASSIFICATION_TYPE":"U","EPOCH":"2022-07-31T20:27:31.655808","OBJECT_ID":"2020-073BF","ECCENTRICITY":"0.00013460","SEMIMAJOR_AXIS":"6925.341","TLE_LINE2":"2 46723  53.0559   8.1395 0001346  83.9297 276.1846 15.06402574 99005"},{"ECCENTRICITY":"0.00015170","SEMIMAJOR_AXIS":"6925.369","TLE_LINE2":"2 46725  53.0554  48.1157 0001517  85.3300 274.7863 15.06393271 98446","EPOCH":"2022-07-31T20:32:52.964448","GP_ID":"209295477","CLASSIFICATION_TYPE":"U","OBJECT_ID":"2020-073BH","MEAN_ELEMENT_THEORY":"SGP4","REF_FRAME":"TEME","ARG_OF_PERICENTER":"85.3300","DECAY_DATE":null,"INCLINATION":"53.0554","CENTER_NAME":"EARTH","OBJECT_TYPE":"PAYLOAD","MEAN_MOTION_DDOT":"0.0000000000000","MEAN_MOTION":"15.06393271","MEAN_MOTION_DOT":"0.00002892","LAUNCH_DATE":"2020-10-18","BSTAR":"0.00021298000000","OBJECT_NAME":"STARLINK-1828","MEAN_ANOMALY":"274.7863","RA_OF_ASC_NODE":"48.1157","EPHEMERIS_TYPE":"0","ELEMENT_SET_NO":"999","PERIAPSIS":"546.184","FILE":"3526413","COUNTRY_CODE":"US","RCS_SIZE":"LARGE","TLE_LINE1":"1 46725U 20073BH  22212.85616857  .00002892  00000-0  21298-3 0  9997","REV_AT_EPOCH":"9844","TIME_SYSTEM":"UTC","PERIOD":"95.593","SITE":"AFETR","APOAPSIS":"548.285","NORAD_CAT_ID":"46725"}];
